64513,KUIPER-00053,2025,93.7,-1.0,+,51.88,Active,0,LEO,USA,USA,Unknown,Unknown,Unknown,1 64513U 25134P   25221.09135863  .00032386  00000+0  89172-3 0  9992,2 64513  51.8780 105.8092 0001959 253.2690 106.8082 15.36863200  8418,15.368632,0.0001959,LEO
64514,KUIPER-00054,2025,93.71,-1.0,+,51.88,Active,0,LEO,USA,USA,Unknown,Unknown,Unknown,1 64514U 25134Q   25220.90248663  .00020608  00000+0  57663-3 0  9999,2 64514  51.8761 106.7902 0002706 260.8004  99.2676 15.36619280  8323,15.3661928,0.0002706,LEO
64515,KUIPER-00055,2025,93.67,-1.0,+,51.88,Active,0,LEO,USA,USA,Unknown,Unknown,Unknown,1 64515U 25134R   25221.40299055  .00030426  00000+0  82533-3 0  9990,2 64515  51.8776 104.1519 0000662 209.1841 150.9109 15.37359326  8464,15.37359326,6.62e-05,LEO
64516,KUIPER-00056,2025,93.73,-1.0,+,51.87,Active,0,LEO,USA,USA,Unknown,Unknown,Unknown,1 64516U 25134S   25220.97439056  .00025192  00000+0  70713-3 0  9990,2 64516  51.8737 106.5154 0002908 262.6939  97.3717 15.36395533  8390,15.36395533,0.0002908,LEO
64517,KUIPER-00057,2025,93.83,-1.0,+,51.87,Active,0,LEO,USA,USA,Unknown,Unknown,Unknown,1 64517U 25134T   25221.39297099 -.00007272  00000+0 -20176-3 0  9996,2 64517  51.8711 104.7991 0006882 277.8124  82.2080 15.34706217  8457,15.34706217,0.0006882,LEO
64518,KUIPER-00058,2025,93.74,-1.0,+,51.87,Active,0,LEO,USA,USA,Unknown,Unknown,Unknown,1 64518U 25134U   25221.11453821  .00045468  00000+0  12749-2 0  9997,2 64518  51.8728 105.9478 0004512 272.9731  87.0739 15.36129791  8415,15.36129791,0.0004512,LEO
64519,KUIPER-00059,2025,93.67,-1.0,+,51.88,Active,0,LEO,USA,USA,Unknown,Unknown,Unknown,1 64519U 25134V   25221.40550317  .00044559  00000+0  12066-2 0  9990,2 64519  51.8771 104.1661 0001655 228.6984 131.3861 15.37230104  8468,15.37230104,0.0001655,LEO
64520,KUIPER-00060,2025,93.68,-1.0,+,51.88,Active,0,LEO,USA,USA,Unknown,Unknown,Unknown,1 64520U 25134W   25221.41182590  .00037858  00000+0  10322-2 0  9994,2 64520  51.8769 104.2095 0003094 244.5634 115.5033 15.37090430  8457,15.3709043,0.0003094,LEO
