<?xml version="1.0" encoding="UTF-8"?>
<ndm xmlns:xsi="http://www.w3.org/2001/XMLSchema-instance" xsi:noNamespaceSchemaLocation="https://sanaregistry.org/r/ndmxml_unqualified/ndmxml-2.0.0-master-2.0.xsd">
<omm id="CCSDS_OMM_VERS" version="2.0">
<header><CREATION_DATE/><ORIGINATOR/></header><body><segment><metadata><OBJECT_NAME>KUIPER-00053</OBJECT_NAME><OBJECT_ID>2025-134P</OBJECT_ID><CENTER_NAME>EARTH</CENTER_NAME><REF_FRAME>TEME</REF_FRAME><TIME_SYSTEM>UTC</TIME_SYSTEM><MEAN_ELEMENT_THEORY>SGP4</MEAN_ELEMENT_THEORY></metadata><data><meanElements><EPOCH>2025-08-09T02:11:33.385632</EPOCH><MEAN_MOTION>15.36863200</MEAN_MOTION><ECCENTRICITY>.0001959</ECCENTRICITY><INCLINATION>51.8780</INCLINATION><RA_OF_ASC_NODE>105.8092</RA_OF_ASC_NODE><ARG_OF_PERICENTER>253.2690</ARG_OF_PERICENTER><MEAN_ANOMALY>106.8082</MEAN_ANOMALY></meanElements><tleParameters><EPHEMERIS_TYPE>0</EPHEMERIS_TYPE><CLASSIFICATION_TYPE>U</CLASSIFICATION_TYPE><NORAD_CAT_ID>64513</NORAD_CAT_ID><ELEMENT_SET_NO>999</ELEMENT_SET_NO><REV_AT_EPOCH>841</REV_AT_EPOCH><BSTAR>.89172E-3</BSTAR><MEAN_MOTION_DOT>.32386E-3</MEAN_MOTION_DOT><MEAN_MOTION_DDOT>0</MEAN_MOTION_DDOT></tleParameters></data></segment></body></omm>
<omm id="CCSDS_OMM_VERS" version="2.0">
<header><CREATION_DATE/><ORIGINATOR/></header><body><segment><metadata><OBJECT_NAME>KUIPER-00054</OBJECT_NAME><OBJECT_ID>2025-134Q</OBJECT_ID><CENTER_NAME>EARTH</CENTER_NAME><REF_FRAME>TEME</REF_FRAME><TIME_SYSTEM>UTC</TIME_SYSTEM><MEAN_ELEMENT_THEORY>SGP4</MEAN_ELEMENT_THEORY></metadata><data><meanElements><EPOCH>2025-08-08T21:39:34.844832</EPOCH><MEAN_MOTION>15.36619280</MEAN_MOTION><ECCENTRICITY>.0002706</ECCENTRICITY><INCLINATION>51.8761</INCLINATION><RA_OF_ASC_NODE>106.7902</RA_OF_ASC_NODE><ARG_OF_PERICENTER>260.8004</ARG_OF_PERICENTER><MEAN_ANOMALY>99.2676</MEAN_ANOMALY></meanElements><tleParameters><EPHEMERIS_TYPE>0</EPHEMERIS_TYPE><CLASSIFICATION_TYPE>U</CLASSIFICATION_TYPE><NORAD_CAT_ID>64514</NORAD_CAT_ID><ELEMENT_SET_NO>999</ELEMENT_SET_NO><REV_AT_EPOCH>832</REV_AT_EPOCH><BSTAR>.57663E-3</BSTAR><MEAN_MOTION_DOT>.20608E-3</MEAN_MOTION_DOT><MEAN_MOTION_DDOT>0</MEAN_MOTION_DDOT></tleParameters></data></segment></body></omm>
<omm id="CCSDS_OMM_VERS" version="2.0">
<header><CREATION_DATE/><ORIGINATOR/></header><body><segment><metadata><OBJECT_NAME>KUIPER-00055</OBJECT_NAME><OBJECT_ID>2025-134R</OBJECT_ID><CENTER_NAME>EARTH</CENTER_NAME><REF_FRAME>TEME</REF_FRAME><TIME_SYSTEM>UTC</TIME_SYSTEM><MEAN_ELEMENT_THEORY>SGP4</MEAN_ELEMENT_THEORY></metadata><data><meanElements><EPOCH>2025-08-09T09:40:18.383520</EPOCH><MEAN_MOTION>15.37359326</MEAN_MOTION><ECCENTRICITY>.0000662</ECCENTRICITY><INCLINATION>51.8776</INCLINATION><RA_OF_ASC_NODE>104.1519</RA_OF_ASC_NODE><ARG_OF_PERICENTER>209.1841</ARG_OF_PERICENTER><MEAN_ANOMALY>150.9109</MEAN_ANOMALY></meanElements><tleParameters><EPHEMERIS_TYPE>0</EPHEMERIS_TYPE><CLASSIFICATION_TYPE>U</CLASSIFICATION_TYPE><NORAD_CAT_ID>64515</NORAD_CAT_ID><ELEMENT_SET_NO>999</ELEMENT_SET_NO><REV_AT_EPOCH>846</REV_AT_EPOCH><BSTAR>.82533E-3</BSTAR><MEAN_MOTION_DOT>.30426E-3</MEAN_MOTION_DOT><MEAN_MOTION_DDOT>0</MEAN_MOTION_DDOT></tleParameters></data></segment></body></omm>
<omm id="CCSDS_OMM_VERS" version="2.0">
<header><CREATION_DATE/><ORIGINATOR/></header><body><segment><metadata><OBJECT_NAME>KUIPER-00056</OBJECT_NAME><OBJECT_ID>2025-134S</OBJECT_ID><CENTER_NAME>EARTH</CENTER_NAME><REF_FRAME>TEME</REF_FRAME><TIME_SYSTEM>UTC</TIME_SYSTEM><MEAN_ELEMENT_THEORY>SGP4</MEAN_ELEMENT_THEORY></metadata><data><meanElements><EPOCH>2025-08-08T23:23:07.344384</EPOCH><MEAN_MOTION>15.36395533</MEAN_MOTION><ECCENTRICITY>.0002908</ECCENTRICITY><INCLINATION>51.8737</INCLINATION><RA_OF_ASC_NODE>106.5154</RA_OF_ASC_NODE><ARG_OF_PERICENTER>262.6939</ARG_OF_PERICENTER><MEAN_ANOMALY>97.3717</MEAN_ANOMALY></meanElements><tleParameters><EPHEMERIS_TYPE>0</EPHEMERIS_TYPE><CLASSIFICATION_TYPE>U</CLASSIFICATION_TYPE><NORAD_CAT_ID>64516</NORAD_CAT_ID><ELEMENT_SET_NO>999</ELEMENT_SET_NO><REV_AT_EPOCH>839</REV_AT_EPOCH><BSTAR>.70713E-3</BSTAR><MEAN_MOTION_DOT>.25192E-3</MEAN_MOTION_DOT><MEAN_MOTION_DDOT>0</MEAN_MOTION_DDOT></tleParameters></data></segment></body></omm>
<omm id="CCSDS_OMM_VERS" version="2.0">
<header><CREATION_DATE/><ORIGINATOR/></header><body><segment><metadata><OBJECT_NAME>KUIPER-00057</OBJECT_NAME><OBJECT_ID>2025-134T</OBJECT_ID><CENTER_NAME>EARTH</CENTER_NAME><REF_FRAME>TEME</REF_FRAME><TIME_SYSTEM>UTC</TIME_SYSTEM><MEAN_ELEMENT_THEORY>SGP4</MEAN_ELEMENT_THEORY></metadata><data><meanElements><EPOCH>2025-08-09T09:25:52.693536</EPOCH><MEAN_MOTION>15.34706217</MEAN_MOTION><ECCENTRICITY>.0006882</ECCENTRICITY><INCLINATION>51.8711</INCLINATION><RA_OF_ASC_NODE>104.7991</RA_OF_ASC_NODE><ARG_OF_PERICENTER>277.8124</ARG_OF_PERICENTER><MEAN_ANOMALY>82.2080</MEAN_ANOMALY></meanElements><tleParameters><EPHEMERIS_TYPE>0</EPHEMERIS_TYPE><CLASSIFICATION_TYPE>U</CLASSIFICATION_TYPE><NORAD_CAT_ID>64517</NORAD_CAT_ID><ELEMENT_SET_NO>999</ELEMENT_SET_NO><REV_AT_EPOCH>845</REV_AT_EPOCH><BSTAR>-.20176E-3</BSTAR><MEAN_MOTION_DOT>-.7272E-4</MEAN_MOTION_DOT><MEAN_MOTION_DDOT>0</MEAN_MOTION_DDOT></tleParameters></data></segment></body></omm>
<omm id="CCSDS_OMM_VERS" version="2.0">
<header><CREATION_DATE/><ORIGINATOR/></header><body><segment><metadata><OBJECT_NAME>KUIPER-00058</OBJECT_NAME><OBJECT_ID>2025-134U</OBJECT_ID><CENTER_NAME>EARTH</CENTER_NAME><REF_FRAME>TEME</REF_FRAME><TIME_SYSTEM>UTC</TIME_SYSTEM><MEAN_ELEMENT_THEORY>SGP4</MEAN_ELEMENT_THEORY></metadata><data><meanElements><EPOCH>2025-08-09T02:44:56.101344</EPOCH><MEAN_MOTION>15.36129791</MEAN_MOTION><ECCENTRICITY>.0004512</ECCENTRICITY><INCLINATION>51.8728</INCLINATION><RA_OF_ASC_NODE>105.9478</RA_OF_ASC_NODE><ARG_OF_PERICENTER>272.9731</ARG_OF_PERICENTER><MEAN_ANOMALY>87.0739</MEAN_ANOMALY></meanElements><tleParameters><EPHEMERIS_TYPE>0</EPHEMERIS_TYPE><CLASSIFICATION_TYPE>U</CLASSIFICATION_TYPE><NORAD_CAT_ID>64518</NORAD_CAT_ID><ELEMENT_SET_NO>999</ELEMENT_SET_NO><REV_AT_EPOCH>841</REV_AT_EPOCH><BSTAR>.12749E-2</BSTAR><MEAN_MOTION_DOT>.45468E-3</MEAN_MOTION_DOT><MEAN_MOTION_DDOT>0</MEAN_MOTION_DDOT></tleParameters></data></segment></body></omm>
<omm id="CCSDS_OMM_VERS" version="2.0">
<header><CREATION_DATE/><ORIGINATOR/></header><body><segment><metadata><OBJECT_NAME>KUIPER-00059</OBJECT_NAME><OBJECT_ID>2025-134V</OBJECT_ID><CENTER_NAME>EARTH</CENTER_NAME><REF_FRAME>TEME</REF_FRAME><TIME_SYSTEM>UTC</TIME_SYSTEM><MEAN_ELEMENT_THEORY>SGP4</MEAN_ELEMENT_THEORY></metadata><data><meanElements><EPOCH>2025-08-09T09:43:55.473888</EPOCH><MEAN_MOTION>15.37230104</MEAN_MOTION><ECCENTRICITY>.0001655</ECCENTRICITY><INCLINATION>51.8771</INCLINATION><RA_OF_ASC_NODE>104.1661</RA_OF_ASC_NODE><ARG_OF_PERICENTER>228.6984</ARG_OF_PERICENTER><MEAN_ANOMALY>131.3861</MEAN_ANOMALY></meanElements><tleParameters><EPHEMERIS_TYPE>0</EPHEMERIS_TYPE><CLASSIFICATION_TYPE>U</CLASSIFICATION_TYPE><NORAD_CAT_ID>64519</NORAD_CAT_ID><ELEMENT_SET_NO>999</ELEMENT_SET_NO><REV_AT_EPOCH>846</REV_AT_EPOCH><BSTAR>.12066E-2</BSTAR><MEAN_MOTION_DOT>.44559E-3</MEAN_MOTION_DOT><MEAN_MOTION_DDOT>0</MEAN_MOTION_DDOT></tleParameters></data></segment></body></omm>
<omm id="CCSDS_OMM_VERS" version="2.0">
<header><CREATION_DATE/><ORIGINATOR/></header><body><segment><metadata><OBJECT_NAME>KUIPER-00060</OBJECT_NAME><OBJECT_ID>2025-134W</OBJECT_ID><CENTER_NAME>EARTH</CENTER_NAME><REF_FRAME>TEME</REF_FRAME><TIME_SYSTEM>UTC</TIME_SYSTEM><MEAN_ELEMENT_THEORY>SGP4</MEAN_ELEMENT_THEORY></metadata><data><meanElements><EPOCH>2025-08-09T09:53:01.757760</EPOCH><MEAN_MOTION>15.37090430</MEAN_MOTION><ECCENTRICITY>.0003094</ECCENTRICITY><INCLINATION>51.8769</INCLINATION><RA_OF_ASC_NODE>104.2095</RA_OF_ASC_NODE><ARG_OF_PERICENTER>244.5634</ARG_OF_PERICENTER><MEAN_ANOMALY>115.5033</MEAN_ANOMALY></meanElements><tleParameters><EPHEMERIS_TYPE>0</EPHEMERIS_TYPE><CLASSIFICATION_TYPE>U</CLASSIFICATION_TYPE><NORAD_CAT_ID>64520</NORAD_CAT_ID><ELEMENT_SET_NO>999</ELEMENT_SET_NO><REV_AT_EPOCH>845</REV_AT_EPOCH><BSTAR>.10322E-2</BSTAR><MEAN_MOTION_DOT>.37858E-3</MEAN_MOTION_DOT><MEAN_MOTION_DDOT>0</MEAN_MOTION_DDOT></tleParameters></data></segment></body></omm>

</ndm>
